NORAD_CAT_ID,OBJECT_NAME,OBJECT_TYPE,EPOCH,MEAN_MOTION,ECCENTRICITY,INCLINATION,RA_OF_ASC_NODE,ARG_OF_PERICENTER,MEAN_ANOMALY,BSTAR,MEAN_MOTION_DOT,MEAN_MOTION_DDOT,TLE_LINE0,TLE_LINE1,TLE_LINE2,SEMIMAJOR_AXIS,PERIOD,APOGEE,PERIGEE,DECAYED
52859.0,STARLINK-4196,PAYLOAD,2022-10-13 22:00:00,15.08836574,0.0001526,53.2177,203.1389,65.3147,127.6486,1.1907e-05,-9.8e-07,0.0,0 STARLINK-4196,1 52859U 22062AF  22286.91667824 -.00000098  00000-0  11907-4 0  9994,2 52859  53.2177 203.1389 0001526  65.3147 127.6486 15.08836574  1307,6917.891,95.438,540.812,538.7,0.0
52859.0,STARLINK-4196,PAYLOAD,2022-10-14 14:00:01,15.08856702,0.0001343,53.2173,200.1443,62.9308,153.2076,-0.0019102999999999,-0.00030575,0.0,0 STARLINK-4196,1 52859U 22062AF  22287.58334491 -.00030575  00000-0 -19103-2 0  9997,2 52859  53.2173 200.1443 0001343  62.9308 153.2076 15.08856702  1305,6917.829000000002,95.436,540.623,538.765,0.0
52859.0,STARLINK-4196,PAYLOAD,2022-10-14 20:00:01,15.08836605,0.0001346,53.2176,199.0233,63.6315,71.2107,2.4965e-05,1.09e-06,0.0,0 STARLINK-4196,1 52859U 22062AF  22287.83334491  .00000109  00000-0  24965-4 0  9997,2 52859  53.2176 199.0233 0001346  63.6315  71.2107 15.08836605  1304,6917.891,95.438,540.687,538.825,0.0
52859.0,STARLINK-4196,PAYLOAD,2022-10-15 06:00:00,15.08835867,0.0001355,53.2173,197.1543,57.0687,182.263,0.00014618,2.039e-05,0.0,0 STARLINK-4196,1 52859U 22062AF  22288.25001157  .00002039  00000-0  14618-3 0  9991,2 52859  53.2173 197.1543 0001355  57.0687 182.2630 15.08835867 19002,6917.893,95.438,540.695,538.821,0.0
52859.0,STARLINK-4196,PAYLOAD,2022-10-15 14:00:01,15.088444400000002,0.000149,53.2148,195.6493,70.6358,180.3288,0.0013805999999999,0.00021755,0.0,0 STARLINK-4196,1 52859U 22062AF  22288.58334491  .00021755  00000-0  13806-2 0  9990,2 52859  53.2148 195.6493 0001490  70.6358 180.3288 15.08844440  1306,6917.8669999999975,95.437,540.763,538.701,0.0
52859.0,STARLINK-4196,PAYLOAD,2022-10-15 22:00:01,15.08867041,0.0001455,53.2149,194.1539,67.1613,195.4714,-0.0051032,-0.00080656,0.0,0 STARLINK-4196,1 52859U 22062AF  22288.91668981 -.00080656  00000-0 -51032-2 0  9991,2 52859  53.2149 194.1539 0001455  67.1613 195.4714 15.08867041  1301,6917.7980000000025,95.436,540.669,538.656,0.0
52859.0,STARLINK-4196,PAYLOAD,2022-10-16 06:00:00,15.08824134,0.0001541,53.2152,192.6603,59.4239,214.7378,0.0019682,0.00031161,0.0,0 STARLINK-4196,1 52859U 22062AF  22289.25001157  .00031161  00000-0  19682-2 0  9995,2 52859  53.2152 192.6603 0001541  59.4239 214.7378 15.08824134 19153,6917.929,95.439,540.86,538.7280000000002,0.0
52859.0,STARLINK-4196,PAYLOAD,2022-10-16 14:00:01,15.08804384,0.0001499,53.2149,191.16,68.4216,217.3395,0.0027264,0.00043327,0.0,0 STARLINK-4196,1 52859U 22062AF  22289.58334491  .00043327  00000-0  27264-2 0  9993,2 52859  53.2149 191.1600 0001499  68.4216 217.3395 15.08804384  1308,6917.989000000001,95.44,540.891,538.817,0.0
52859.0,STARLINK-4196,PAYLOAD,2022-10-16 22:00:00,15.0885773,0.0001583,53.2157,189.6659,67.2336,230.0931,-0.0028195,-0.00044903,0.0,0 STARLINK-4196,1 52859U 22062AF  22289.91667824 -.00044903  00000-0 -28195-2 0  9996,2 52859  53.2157 189.6659 0001583  67.2336 230.0931 15.08857730  1308,6917.826,95.436,540.786,538.596,0.0
52859.0,STARLINK-4196,PAYLOAD,2022-10-17 14:00:01,15.08816276,0.0001404,53.2156,186.6716,68.0135,252.4956,0.0014183,0.00022342,0.0,0 STARLINK-4196,1 52859U 22062AF  22290.58334491  .00022342  00000-0  14183-2 0  9995,2 52859  53.2156 186.6716 0001404  68.0135 252.4956 15.08816276 19355,6917.953,95.439,540.789,538.847,0.0
52859.0,STARLINK-4196,PAYLOAD,2022-10-17 22:00:00,15.08841447,0.0001501,53.2161,185.1769,63.203,268.8871,-0.00012409,-2.262e-05,0.0,0 STARLINK-4196,1 52859U 22062AF  22290.91667824 -.00002262  00000-0 -12409-3 0  9992,2 52859  53.2161 185.1769 0001501  63.2030 268.8871 15.08841447  1303,6917.876,95.437,540.779,538.703,0.0
52859.0,STARLINK-4196,PAYLOAD,2022-10-18 08:00:01,15.08846435,0.0001604,53.2157,183.305,60.7293,15.8252,-0.0029583,-0.0004707,0.0,0 STARLINK-4196,1 52859U 22062AF  22291.33334491 -.00047070  00000-0 -29583-2 0  9996,2 52859  53.2157 183.3050 0001604  60.7293  15.8252 15.08846435 19469,6917.861,95.437,540.835,538.616,0.0
52859.0,STARLINK-4196,PAYLOAD,2022-10-18 14:00:01,15.08794181,0.0001544,53.2159,182.1817,68.5958,286.6568,0.0040225,0.00064233,0.0,0 STARLINK-4196,1 52859U 22062AF  22291.58334491  .00064233  00000-0  40225-2 0  9997,2 52859  53.2159 182.1817 0001544  68.5958 286.6568 15.08794181  1308,6918.02,95.44,540.9540000000002,538.817,0.0
52859.0,STARLINK-4196,PAYLOAD,2022-10-18 22:00:00,15.08840521,0.0001666999999999,53.2161,180.6867,63.9552,302.8587,-0.00076991,-0.00012521,0.0,0 STARLINK-4196,1 52859U 22062AF  22291.91667824 -.00012521  00000-0 -76991-3 0  9998,2 52859  53.2161 180.6867 0001667  63.9552 302.8587 15.08840521 19552,6917.879,95.438,540.8969999999998,538.591,0.0
52859.0,STARLINK-4196,PAYLOAD,2022-10-19 14:00:01,15.08808767,0.0001449,53.2161,177.6926,69.0794,320.9362,0.0031906,0.00050813,0.0,0 STARLINK-4196,1 52859U 22062AF  22292.58334491  .00050813  00000-0  31906-2 0  9993,2 52859  53.2161 177.6926 0001449  69.0794 320.9362 15.08808767  1309,6917.976,95.44,540.8430000000002,538.8380000000002,0.0
52859.0,STARLINK-4196,PAYLOAD,2022-10-19 22:00:00,15.08846469,0.0001571999999999,53.2162,176.1978,63.7306,337.8612,-0.00079499,-0.0001291999999999,0.0,0 STARLINK-4196,1 52859U 22062AF  22292.91667824 -.00012920  00000-0 -79499-3 0  9998,2 52859  53.2162 176.1978 0001572  63.7306 337.8612 15.08846469  1304,6917.861,95.437,540.813,538.638,0.0
52859.0,STARLINK-4196,PAYLOAD,2022-10-20 14:00:01,15.08805013,0.0001546,53.2161,173.2043,72.3697,352.4215,0.0034881,0.0005561,0.0,0 STARLINK-4196,1 52859U 22062AF  22293.58334491  .00055610  00000-0  34881-2 0  9999,2 52859  53.2161 173.2043 0001546  72.3697 352.4215 15.08805013  1306,6917.986999999999,95.44,540.922,538.783,0.0
52859.0,STARLINK-4196,PAYLOAD,2022-10-20 22:00:00,15.08844692,0.0001686999999999,53.2165,171.7102,66.5651,9.8013,-0.00080957,-0.00013151,0.0,0 STARLINK-4196,1 52859U 22062AF  22293.91667824 -.00013151  00000-0 -80957-3 0  9997,2 52859  53.2165 171.7102 0001687  66.5651   9.8013 15.08844692  1305,6917.866,95.437,540.898,538.564,0.0
52859.0,STARLINK-4196,PAYLOAD,2022-10-21 06:00:00,15.08852999,0.0001665999999999,53.2159,170.2134,64.1575,23.7961,-0.00067184,-0.00010968,0.0,0 STARLINK-4196,1 52859U 22062AF  22294.25001157 -.00010968  00000-0 -67184-3 0  9996,2 52859  53.2159 170.2134 0001666  64.1575  23.7961 15.08852999 19904,6917.840999999999,95.437,540.8580000000002,538.553,0.0
52859.0,STARLINK-4196,PAYLOAD,2022-10-21 14:00:01,15.088499,0.0001547,53.2158,168.7154,74.0019,25.5669,0.00013352,1.838e-05,0.0,0 STARLINK-4196,1 52859U 22062AF  22294.58334491  .00001838  00000-0  13352-3 0  9994,2 52859  53.2158 168.7154 0001547  74.0019  25.5669 15.08849900  1306,6917.85,95.437,540.785,538.645,0.0
52859.0,STARLINK-4196,PAYLOAD,2022-10-21 22:00:00,15.08837541,0.0001608,53.2155,167.22,66.2991,44.8747,-0.00067013,-0.00010937,0.0,0 STARLINK-4196,1 52859U 22062AF  22294.91667824 -.00010937  00000-0 -67013-3 0  9995,2 52859  53.2155 167.2200 0001608  66.2991  44.8747 15.08837541  1308,6917.888000000001,95.438,540.865,538.641,0.0
52859.0,STARLINK-4196,PAYLOAD,2022-10-22 08:00:01,15.08861716,0.0001511,53.2153,165.3487,67.2052,148.45,-0.0027603,-0.00043976,0.0,0 STARLINK-4196,1 52859U 22062AF  22295.33334491 -.00043976  00000-0 -27603-2 0  9992,2 52859  53.2153 165.3487 0001511  67.2052 148.4500 15.08861716 20078,6917.814,95.436,540.724,538.634,0.0
52859.0,STARLINK-4196,PAYLOAD,2022-10-22 14:00:01,15.08830697,0.0001467,53.2152,164.2256,72.1611,62.2037,0.00025688,3.802e-05,0.0,0 STARLINK-4196,1 52859U 22062AF  22295.58334491  .00003802  00000-0  25688-3 0  9993,2 52859  53.2152 164.2256 0001467  72.1611  62.2037 15.08830697  1302,6917.909000000002,95.438,540.789,538.759,0.0
52859.0,STARLINK-4196,PAYLOAD,2022-10-22 22:00:00,15.08833759,0.0001546,53.2151,162.731,64.3416,81.6137,1.9557e-05,2.3e-07,0.0,0 STARLINK-4196,1 52859U 22062AF  22295.91667824  .00000023  00000-0  19557-4 0  9990,2 52859  53.2151 162.7310 0001546  64.3416  81.6137 15.08833759  1307,6917.899,95.438,540.8340000000002,538.695,0.0
52859.0,STARLINK-4196,PAYLOAD,2022-10-23 00:00:02,15.08819933,0.0001575,53.2152,162.3571,62.3393,176.5794,0.0022568,0.00035792,0.0,0 STARLINK-4196,1 52859U 22062AF  22296.00002315  .00035792  00000-0  22568-2 0  9994,2 52859  53.2152 162.3571 0001575  62.3393 176.5794 15.08819933 20174,6917.941999999999,95.439,540.896,538.717,0.0
52859.0,STARLINK-4196,PAYLOAD,2022-10-23 14:00:01,15.0884443,0.0001476,53.215,159.7363,70.844,98.3102,0.0022338,0.00035446,0.0,0 STARLINK-4196,1 52859U 22062AF  22296.58334491  .00035446  00000-0  22338-2 0  9991,2 52859  53.2150 159.7363 0001476  70.8440  98.3102 15.08844430  1306,6917.8669999999975,95.437,540.753,538.711,0.0
52859.0,STARLINK-4196,PAYLOAD,2022-10-23 22:00:00,15.08859401,0.0001578,53.2149,158.2416,62.5374,118.2329,-0.0027294,-0.00043488,0.0,0 STARLINK-4196,1 52859U 22062AF  22296.91667824 -.00043488  00000-0 -27294-2 0  9990,2 52859  53.2149 158.2416 0001578  62.5374 118.2329 15.08859401 20313,6917.821,95.436,540.778,538.594,0.0
52859.0,STARLINK-4196,PAYLOAD,2022-10-24 14:00:01,15.08786841,0.0001465999999999,53.215,155.2469,68.7647,135.1881,0.0018674,0.00029513,0.0,0 STARLINK-4196,1 52859U 22062AF  22297.58334491  .00029513  00000-0  18674-2 0  9998,2 52859  53.2150 155.2469 0001466  68.7647 135.1881 15.08786841  1303,6918.043000000002,95.441,540.922,538.894,0.0
52859.0,STARLINK-4196,PAYLOAD,2022-10-24 22:00:00,15.08784139,0.0001563,53.2149,153.7523,59.7109,155.7891,0.0029747,0.000473,0.0,0 STARLINK-4196,1 52859U 22062AF  22297.91667824  .00047300  00000-0  29747-2 0  9991,2 52859  53.2149 153.7523 0001563  59.7109 155.7891 15.08784139  1303,6918.051,95.441,540.997,538.835,0.0
